[{"OBJECT_NAME":"STARLINK-36991","OBJECT_ID":"2026-039AB","EPOCH":"2026-03-09T22:00:01.999584","MEAN_MOTION":15.86272058,"ECCENTRICITY":0.0001714,"INCLINATION":42.9972,"RA_OF_ASC_NODE":53.2874,"ARG_OF_PERICENTER":262.3348,"MEAN_ANOMALY":98.9266,"EPHEMERIS_TYPE":0,"CLASSIFICATION_TYPE":"U","NORAD_CAT_ID":68011,"ELEMENT_SET_NO":999,"REV_AT_EPOCH":291,"BSTAR":-0.0068898297,"MEAN_MOTION_DOT":-0.0156435,"MEAN_MOTION_DDOT":0},{"OBJECT_NAME":"FLOCK 4BE-8","OBJECT_ID":"2024-149AZ","EPOCH":"2026-03-09T17:31:01.825536","MEAN_MOTION":15.79197163,"ECCENTRICITY":0.00047231,"INCLINATION":97.3661,"RA_OF_ASC_NODE":155.5351,"ARG_OF_PERICENTER":252.2013,"MEAN_ANOMALY":107.8739,"EPHEMERIS_TYPE":0,"CLASSIFICATION_TYPE":"U","NORAD_CAT_ID":60515,"ELEMENT_SET_NO":999,"REV_AT_EPOCH":8726,"BSTAR":0.0018415661,"MEAN_MOTION_DOT":0.00340995,"MEAN_MOTION_DDOT":0}]
